{
    "links": {
        "self": "http://www.neowsapp.com/rest/v1/neo/3618644?api_key=iIulBulltgU6a56xZRHN4H3l9WmuAYTsLGpBGhQ2"
    },
    "id": "3618644",
    "neo_reference_id": "3618644",
    "name": "(2012 WC25)",
    "designation": "2012 WC25",
    "nasa_jpl_url": "http://ssd.jpl.nasa.gov/sbdb.cgi?sstr=3618644",
    "absolute_magnitude_h": 22.6,
    "estimated_diameter": {
        "kilometers": {
            "estimated_diameter_min": 0.0802703167,
            "estimated_diameter_max": 0.1794898848
        },
        "meters": {
            "estimated_diameter_min": 80.2703167283,
            "estimated_diameter_max": 179.4898847799
        },
        "miles": {
            "estimated_diameter_min": 0.049877647,
            "estimated_diameter_max": 0.1115298092
        },
        "feet": {
            "estimated_diameter_min": 263.3540659348,
            "estimated_diameter_max": 588.8775935812
        }
    },
    "is_potentially_hazardous_asteroid": false,
    "close_approach_data": [
        {
            "close_approach_date": "2012-11-12",
            "close_approach_date_full": "2012-Nov-12 03:29",
            "epoch_date_close_approach": 1352690940000,
            "relative_velocity": {
                "kilometers_per_second": "7.4027494322",
                "kilometers_per_hour": "26649.897955969",
                "miles_per_hour": "16559.2102049186"
            },
            "miss_distance": {
                "astronomical": "0.2348382499",
                "lunar": "91.3520792111",
                "kilometers": "35131301.979567713",
                "miles": "21829578.7990839194"
            },
            "orbiting_body": "Earth"
        }
    ],
    "orbital_data": {
        "orbit_id": "10",
        "orbit_determination_date": "2017-04-06 08:47:52",
        "first_observation_date": "2012-11-24",
        "last_observation_date": "2012-12-21",
        "data_arc_in_days": 27,
        "observations_used": 37,
        "orbit_uncertainty": "7",
        "minimum_orbit_intersection": ".248697",
        "jupiter_tisserand_invariant": "3.172",
        "epoch_osculation": "2459000.5",
        "eccentricity": ".5270378558114235",
        "semi_major_axis": "2.607698930527783",
        "inclination": "12.10082448094387",
        "ascending_node_longitude": "60.25637613714029",
        "orbital_period": "1538.100099301206",
        "perihelion_distance": "1.233342877580678",
        "perihelion_argument": "345.5671046169657",
        "aphelion_distance": "3.982054983474888",
        "perihelion_time": "2459301.076010514326",
        "mean_anomaly": "289.648685521626",
        "mean_motion": ".2340549878148738",
        "equinox": "J2000",
        "orbit_class": {
            "orbit_class_type": "AMO",
            "orbit_class_description": "Near-Earth asteroid orbits similar to that of 1221 Amor",
            "orbit_class_range": "1.017 AU < q (perihelion) < 1.3 AU"
        }
    },
    "is_sentry_object": false
}